[{"OBJECT_NAME":"KUIPER-00153","OBJECT_ID":"2025-217M","EPOCH":"2026-03-05T15:15:57.203136","MEAN_MOTION":15.13157862,"ECCENTRICITY":0.0010302,"INCLINATION":51.8805,"RA_OF_ASC_NODE":46.4134,"ARG_OF_PERICENTER":311.4382,"MEAN_ANOMALY":48.5709,"EPHEMERIS_TYPE":0,"CLASSIFICATION_TYPE":"U","NORAD_CAT_ID":65773,"ELEMENT_SET_NO":999,"REV_AT_EPOCH":2448,"BSTAR":0.0010484771,"MEAN_MOTION_DOT":0.00018588,"MEAN_MOTION_DDOT":0},{"OBJECT_NAME":"KUIPER-00155","OBJECT_ID":"2025-217N","EPOCH":"2026-03-05T14:19:13.599552","MEAN_MOTION":15.23035957,"ECCENTRICITY":0.00055521,"INCLINATION":51.8784,"RA_OF_ASC_NODE":30.8773,"ARG_OF_PERICENTER":316.7439,"MEAN_ANOMALY":43.3105,"EPHEMERIS_TYPE":0,"CLASSIFICATION_TYPE":"U","NORAD_CAT_ID":65774,"ELEMENT_SET_NO":999,"REV_AT_EPOCH":2469,"BSTAR":0.00091638426,"MEAN_MOTION_DOT":0.00021604,"MEAN_MOTION_DDOT":0},{"OBJECT_NAME":"KUIPER-00156","OBJECT_ID":"2025-217P","EPOCH":"2026-03-05T08:18:48.928896","MEAN_MOTION":14.79936911,"ECCENTRICITY":8.267e-5,"INCLINATION":51.9032,"RA_OF_ASC_NODE":44.8293,"ARG_OF_PERICENTER":84.7028,"MEAN_ANOMALY":275.4028,"EPHEMERIS_TYPE":0,"CLASSIFICATION_TYPE":"U","NORAD_CAT_ID":65775,"ELEMENT_SET_NO":999,"REV_AT_EPOCH":2447,"BSTAR":4.717684e-6,"MEAN_MOTION_DOT":-1.85e-6,"MEAN_MOTION_DDOT":0},{"OBJECT_NAME":"KUIPER-00158","OBJECT_ID":"2025-217Q","EPOCH":"2026-03-05T10:00:34.556832","MEAN_MOTION":14.80491942,"ECCENTRICITY":0.00010826,"INCLINATION":51.8967,"RA_OF_ASC_NODE":64.3735,"ARG_OF_PERICENTER":44.8091,"MEAN_ANOMALY":315.2959,"EPHEMERIS_TYPE":0,"CLASSIFICATION_TYPE":"U","NORAD_CAT_ID":65776,"ELEMENT_SET_NO":999,"REV_AT_EPOCH":2421,"BSTAR":0.00095287485,"MEAN_MOTION_DOT":7.147e-5,"MEAN_MOTION_DDOT":0},{"OBJECT_NAME":"KUIPER-00163","OBJECT_ID":"2025-217R","EPOCH":"2026-03-05T14:00:01.999872","MEAN_MOTION":14.95109034,"ECCENTRICITY":0.00024284,"INCLINATION":51.8969,"RA_OF_ASC_NODE":65.4949,"ARG_OF_PERICENTER":61.1685,"MEAN_ANOMALY":94.7675,"EPHEMERIS_TYPE":0,"CLASSIFICATION_TYPE":"U","NORAD_CAT_ID":65777,"ELEMENT_SET_NO":999,"REV_AT_EPOCH":555,"BSTAR":0.0068513573,"MEAN_MOTION_DOT":0.00076511,"MEAN_MOTION_DDOT":0},{"OBJECT_NAME":"KUIPER-00165","OBJECT_ID":"2025-217S","EPOCH":"2026-03-05T09:40:32.143584","MEAN_MOTION":14.79933805,"ECCENTRICITY":8.216e-5,"INCLINATION":51.901,"RA_OF_ASC_NODE":54.5512,"ARG_OF_PERICENTER":93.2105,"MEAN_ANOMALY":266.8951,"EPHEMERIS_TYPE":0,"CLASSIFICATION_TYPE":"U","NORAD_CAT_ID":65778,"ELEMENT_SET_NO":999,"REV_AT_EPOCH":2434,"BSTAR":-0.0010470439,"MEAN_MOTION_DOT":-8.194e-5,"MEAN_MOTION_DDOT":0},{"OBJECT_NAME":"KUIPER-00166","OBJECT_ID":"2025-217T","EPOCH":"2026-03-05T07:34:07.735584","MEAN_MOTION":14.79992933,"ECCENTRICITY":6.79e-5,"INCLINATION":51.9042,"RA_OF_ASC_NODE":42.4609,"ARG_OF_PERICENTER":95.3066,"MEAN_ANOMALY":264.7974,"EPHEMERIS_TYPE":0,"CLASSIFICATION_TYPE":"U","NORAD_CAT_ID":65779,"ELEMENT_SET_NO":999,"REV_AT_EPOCH":2450,"BSTAR":0.00085528559,"MEAN_MOTION_DOT":6.314e-5,"MEAN_MOTION_DDOT":0},{"OBJECT_NAME":"KUIPER-00167","OBJECT_ID":"2025-217U","EPOCH":"2026-03-05T06:10:35.065920","MEAN_MOTION":14.79975308,"ECCENTRICITY":8.694e-5,"INCLINATION":51.8969,"RA_OF_ASC_NODE":65.1667,"ARG_OF_PERICENTER":46.7827,"MEAN_ANOMALY":313.3207,"EPHEMERIS_TYPE":0,"CLASSIFICATION_TYPE":"U","NORAD_CAT_ID":65780,"ELEMENT_SET_NO":999,"REV_AT_EPOCH":2418,"BSTAR":0.00034318376,"MEAN_MOTION_DOT":2.399e-5,"MEAN_MOTION_DDOT":0},{"OBJECT_NAME":"KUIPER-00168","OBJECT_ID":"2025-217V","EPOCH":"2026-03-05T08:14:57.581664","MEAN_MOTION":14.79914334,"ECCENTRICITY":0.00010613,"INCLINATION":51.9004,"RA_OF_ASC_NODE":47.3174,"ARG_OF_PERICENTER":79.4696,"MEAN_ANOMALY":280.6386,"EPHEMERIS_TYPE":0,"CLASSIFICATION_TYPE":"U","NORAD_CAT_ID":65781,"ELEMENT_SET_NO":999,"REV_AT_EPOCH":2444,"BSTAR":0.00058915714,"MEAN_MOTION_DOT":4.271e-5,"MEAN_MOTION_DDOT":0},{"OBJECT_NAME":"KUIPER-00169","OBJECT_ID":"2025-217W","EPOCH":"2026-03-05T08:08:09.678624","MEAN_MOTION":14.79807627,"ECCENTRICITY":7.492e-5,"INCLINATION":51.9014,"RA_OF_ASC_NODE":52.3462,"ARG_OF_PERICENTER":90.7064,"MEAN_ANOMALY":269.3984,"EPHEMERIS_TYPE":0,"CLASSIFICATION_TYPE":"U","NORAD_CAT_ID":65782,"ELEMENT_SET_NO":999,"REV_AT_EPOCH":2437,"BSTAR":0.00086510642,"MEAN_MOTION_DOT":6.361e-5,"MEAN_MOTION_DDOT":0},{"OBJECT_NAME":"KUIPER-00170","OBJECT_ID":"2025-217X","EPOCH":"2026-03-05T06:21:37.921536","MEAN_MOTION":14.79921425,"ECCENTRICITY":7.152e-5,"INCLINATION":51.8998,"RA_OF_ASC_NODE":57.6491,"ARG_OF_PERICENTER":92.3106,"MEAN_ANOMALY":267.7938,"EPHEMERIS_TYPE":0,"CLASSIFICATION_TYPE":"U","NORAD_CAT_ID":65783,"ELEMENT_SET_NO":999,"REV_AT_EPOCH":2429,"BSTAR":-2.9107624e-5,"MEAN_MOTION_DOT":-4.43e-6,"MEAN_MOTION_DDOT":0},{"OBJECT_NAME":"KUIPER-00172","OBJECT_ID":"2025-217Z","EPOCH":"2026-03-05T14:00:01.999872","MEAN_MOTION":14.86909864,"ECCENTRICITY":0.00026368,"INCLINATION":51.8994,"RA_OF_ASC_NODE":37.0389,"ARG_OF_PERICENTER":285.5851,"MEAN_ANOMALY":223.0139,"EPHEMERIS_TYPE":0,"CLASSIFICATION_TYPE":"U","NORAD_CAT_ID":65785,"ELEMENT_SET_NO":999,"REV_AT_EPOCH":310,"BSTAR":-0.20714645,"MEAN_MOTION_DOT":-0.01703148,"MEAN_MOTION_DDOT":0},{"OBJECT_NAME":"KUIPER-00173","OBJECT_ID":"2025-217AA","EPOCH":"2026-03-05T13:45:51.346944","MEAN_MOTION":14.81950325,"ECCENTRICITY":0.00014353,"INCLINATION":51.9036,"RA_OF_ASC_NODE":50.6054,"ARG_OF_PERICENTER":1.3783,"MEAN_ANOMALY":358.7184,"EPHEMERIS_TYPE":0,"CLASSIFICATION_TYPE":"U","NORAD_CAT_ID":65786,"ELEMENT_SET_NO":999,"REV_AT_EPOCH":2441,"BSTAR":-0.012773339,"MEAN_MOTION_DOT":-0.00100902,"MEAN_MOTION_DDOT":0},{"OBJECT_NAME":"KUIPER-00174","OBJECT_ID":"2025-217AB","EPOCH":"2026-03-05T07:26:20.931936","MEAN_MOTION":14.7993397,"ECCENTRICITY":0.00010096,"INCLINATION":51.904,"RA_OF_ASC_NODE":47.4908,"ARG_OF_PERICENTER":80.0018,"MEAN_ANOMALY":280.1058,"EPHEMERIS_TYPE":0,"CLASSIFICATION_TYPE":"U","NORAD_CAT_ID":65787,"ELEMENT_SET_NO":999,"REV_AT_EPOCH":2443,"BSTAR":0.00071668162,"MEAN_MOTION_DOT":5.247e-5,"MEAN_MOTION_DDOT":0},{"OBJECT_NAME":"KUIPER-00176","OBJECT_ID":"2025-217AC","EPOCH":"2026-03-05T10:17:16.318176","MEAN_MOTION":14.79932819,"ECCENTRICITY":6.758e-5,"INCLINATION":51.9017,"RA_OF_ASC_NODE":61.9388,"ARG_OF_PERICENTER":86.3146,"MEAN_ANOMALY":273.7893,"EPHEMERIS_TYPE":0,"CLASSIFICATION_TYPE":"U","NORAD_CAT_ID":65788,"ELEMENT_SET_NO":999,"REV_AT_EPOCH":2424,"BSTAR":-0.00040365777,"MEAN_MOTION_DOT":-3.297e-5,"MEAN_MOTION_DDOT":0},{"OBJECT_NAME":"KUIPER-00101","OBJECT_ID":"2025-228A","EPOCH":"2026-03-05T07:20:27.901536","MEAN_MOTION":14.7992694,"ECCENTRICITY":5.689e-5,"INCLINATION":51.9032,"RA_OF_ASC_NODE":19.9631,"ARG_OF_PERICENTER":116.532,"MEAN_ANOMALY":243.57,"EPHEMERIS_TYPE":0,"CLASSIFICATION_TYPE":"U","NORAD_CAT_ID":65947,"ELEMENT_SET_NO":999,"REV_AT_EPOCH":2258,"BSTAR":0.00019647442,"MEAN_MOTION_DOT":1.277e-5,"MEAN_MOTION_DDOT":0},{"OBJECT_NAME":"KUIPER-00113","OBJECT_ID":"2025-228B","EPOCH":"2026-03-05T06:39:30.095424","MEAN_MOTION":14.79988297,"ECCENTRICITY":8.599e-5,"INCLINATION":51.9001,"RA_OF_ASC_NODE":15.1045,"ARG_OF_PERICENTER":104.3033,"MEAN_ANOMALY":255.8025,"EPHEMERIS_TYPE":0,"CLASSIFICATION_TYPE":"U","NORAD_CAT_ID":65948,"ELEMENT_SET_NO":999,"REV_AT_EPOCH":2264,"BSTAR":0.0009632522,"MEAN_MOTION_DOT":7.139e-5,"MEAN_MOTION_DDOT":0}]
